{"type": "FeatureCollection", "features": [ {"type": "Feature", "properties": {"norad_id": 39634, "name": "SENTINEL-1A", "group": "resource", "lat": 39.742496524630475, "lon": -1.3923568490571827, "alt_km": 692.0493191119667, "timestamp": "2025-12-26T10:30:49.916351+00:00", "meta": {"OBJECT_NAME": "SENTINEL-1A", "OBJECT_ID": "2014-016A", "EPOCH": "2025-12-26T03:44:50.140896", "MEAN_MOTION": 14.59199806, "ECCENTRICITY": 0.0001261, "INCLINATION": 98.1803, "RA_OF_ASC_NODE": 5.1991, "ARG_OF_PERICENTER": 85.293, "MEAN_ANOMALY": 274.8414, "EPHEMERIS_TYPE": 0, "CLASSIFICATION_TYPE": "U", "NORAD_CAT_ID": 39634, "ELEMENT_SET_NO": 999, "REV_AT_EPOCH": 62478, "BSTAR": 2.3206e-05, "MEAN_MOTION_DOT": 6.4e-07, "MEAN_MOTION_DDOT": 0}, "tle": {"line1": "1 39634U 14016A   25360.15613589  .00000064  00000+0  23206-4 0  9997", "line2": "2 39634  98.1803   5.1991 0001261  85.2930 274.8414 14.59199806624787"}}, "geometry": {"type": "Point", "coordinates": [-1.3923568490571827, 39.742496524630475]}}, {"type": "Feature", "properties": {"norad_id": 39731, "name": "KAZEOSAT 1", "group": "resource", "lat": -69.56797292893746, "lon": -131.15649796896827, "alt_km": 759.7143949916453, "timestamp": "2025-12-26T10:30:49.916361+00:00", "meta": {"OBJECT_NAME": "KAZEOSAT 1", "OBJECT_ID": "2014-024A", "EPOCH": "2025-12-26T04:21:23.823936", "MEAN_MOTION": 14.42069723, "ECCENTRICITY": 0.000122, "INCLINATION": 98.3414, "RA_OF_ASC_NODE": 71.7863, "ARG_OF_PERICENTER": 97.6795, "MEAN_ANOMALY": 262.4533, "EPHEMERIS_TYPE": 0, "CLASSIFICATION_TYPE": "U", "NORAD_CAT_ID": 39731, "ELEMENT_SET_NO": 999, "REV_AT_EPOCH": 61362, "BSTAR": 5.0425e-05, "MEAN_MOTION_DOT": 1.23e-06, "MEAN_MOTION_DDOT": 0}, "tle": {"line1": "1 39731U 14024A   25360.18152574  .00000123  00000+0  50425-4 0  9998", "line2": "2 39731  98.3414  71.7863 0001220  97.6795 262.4533 14.42069723613625"}}, "geometry": {"type": "Point", "coordinates": [-131.15649796896827, -69.56797292893746]}}, {"type": "Feature", "properties": {"norad_id": 39766, "name": "ALOS-2", "group": "resource", "lat": 3.0319688727259053, "lon": -84.48873503230855, "alt_km": 633.4598285961956, "timestamp": "2025-12-26T10:30:49.916371+00:00", "meta": {"OBJECT_NAME": "ALOS-2", "OBJECT_ID": "2014-029A", "EPOCH": "2025-12-26T04:50:51.877248", "MEAN_MOTION": 14.79471307, "ECCENTRICITY": 0.0001415, "INCLINATION": 97.9221, "RA_OF_ASC_NODE": 94.856, "ARG_OF_PERICENTER": 96.0944, "MEAN_ANOMALY": 264.0429, "EPHEMERIS_TYPE": 0, "CLASSIFICATION_TYPE": "U", "NORAD_CAT_ID": 39766, "ELEMENT_SET_NO": 999, "REV_AT_EPOCH": 62600, "BSTAR": 0.00020332, "MEAN_MOTION_DOT": 1.467e-05, "MEAN_MOTION_DDOT": 0}, "tle": {"line1": "1 39766U 14029A   25360.20198932  .00001467  00000+0  20332-3 0  9997", "line2": "2 39766  97.9221  94.8560 0001415  96.0944 264.0429 14.79471307626002"}}, "geometry": {"type": "Point", "coordinates": [-84.48873503230855, 3.0319688727259053]}}, {"type": "Feature", "properties": {"norad_id": 40010, "name": "KAZEOSAT 2", "group": "resource", "lat": 7.44511438499586, "lon": -156.94804205799178, "alt_km": 620.4478886385241, "timestamp": "2025-12-26T10:30:49.916382+00:00", "meta": {"OBJECT_NAME": "KAZEOSAT 2", "OBJECT_ID": "2014-033A", "EPOCH": "2025-12-26T04:00:44.140320", "MEAN_MOTION": 14.85187766, "ECCENTRICITY": 0.000878, "INCLINATION": 97.5496, "RA_OF_ASC_NODE": 203.7882, "ARG_OF_PERICENTER": 160.8315, "MEAN_ANOMALY": 199.3233, "EPHEMERIS_TYPE": 0, "CLASSIFICATION_TYPE": "U", "NORAD_CAT_ID": 40010, "ELEMENT_SET_NO": 999, "REV_AT_EPOCH": 62327, "BSTAR": 3.2082e-05, "MEAN_MOTION_DOT": 2.25e-06, "MEAN_MOTION_DDOT": 0}, "tle": {"line1": "1 40010U 14033A   25360.16717755  .00000225  00000+0  32082-4 0  9998", "line2": "2 40010  97.5496 203.7882 0008780 160.8315 199.3233 14.85187766623277"}}, "geometry": {"type": "Point", "coordinates": [-156.94804205799178, 7.44511438499586]}}, {"type": "Feature", "properties": {"norad_id": 40011, "name": "HODOYOSHI-4", "group": "resource", "lat": -30.050680333184175, "lon": 4.2512290970967515, "alt_km": 601.9312481355164, "timestamp": "2025-12-26T10:30:49.916392+00:00", "meta": {"OBJECT_NAME": "HODOYOSHI-4", "OBJECT_ID": "2014-033B", "EPOCH": "2025-12-26T04:43:47.707680", "MEAN_MOTION": 14.87525993, "ECCENTRICITY": 0.0024244, "INCLINATION": 97.5411, "RA_OF_ASC_NODE": 188.4176, "ARG_OF_PERICENTER": 156.0072, "MEAN_ANOMALY": 204.228, "EPHEMERIS_TYPE": 0, "CLASSIFICATION_TYPE": "U", "NORAD_CAT_ID": 40011, "ELEMENT_SET_NO": 999, "REV_AT_EPOCH": 62308, "BSTAR": 0.00010312, "MEAN_MOTION_DOT": 8.88e-06, "MEAN_MOTION_DDOT": 0}, "tle": {"line1": "1 40011U 14033B   25360.19707995  .00000888  00000+0  10312-3 0  9993", "line2": "2 40011  97.5411 188.4176 0024244 156.0072 204.2280 14.87525993623087"}}, "geometry": {"type": "Point", "coordinates": [4.2512290970967515, -30.050680333184175]}}, {"type": "Feature", "properties": {"norad_id": 40013, "name": "DEIMOS-2", "group": "resource", "lat": -79.02276308713942, "lon": -80.67929154398928, "alt_km": 596.769204142558, "timestamp": "2025-12-26T10:30:49.916403+00:00", "meta": {"OBJECT_NAME": "DEIMOS-2", "OBJECT_ID": "2014-033D", "EPOCH": "2025-12-26T04:26:49.934688", "MEAN_MOTION": 14.93030577, "ECCENTRICITY": 0.0001352, "INCLINATION": 97.6047, "RA_OF_ASC_NODE": 235.5421, "ARG_OF_PERICENTER": 108.7841, "MEAN_ANOMALY": 251.3526, "EPHEMERIS_TYPE": 0, "CLASSIFICATION_TYPE": "U", "NORAD_CAT_ID": 40013, "ELEMENT_SET_NO": 999, "REV_AT_EPOCH": 61190, "BSTAR": 0.00033692, "MEAN_MOTION_DOT": 3.451e-05, "MEAN_MOTION_DDOT": 0}, "tle": {"line1": "1 40013U 14033D   25360.18530017  .00003451  00000+0  33692-3 0  9998", "line2": "2 40013  97.6047 235.5421 0001352 108.7841 251.3526 14.93030577611905"}}, "geometry": {"type": "Point", "coordinates": [-80.67929154398928, -79.02276308713942]}}, {"type": "Feature", "properties": {"norad_id": 40015, "name": "HODOYOSHI-3", "group": "resource", "lat": 3.660131607474661, "lon": 165.18752653182722, "alt_km": 638.3165159864657, "timestamp": "2025-12-26T10:30:49.916413+00:00", "meta": {"OBJECT_NAME": "HODOYOSHI-3", "OBJECT_ID": "2014-033F", "EPOCH": "2025-12-26T04:01:40.353024", "MEAN_MOTION": 14.8485107, "ECCENTRICITY": 0.0032604, "INCLINATION": 97.6208, "RA_OF_ASC_NODE": 165.4198, "ARG_OF_PERICENTER": 202.3678, "MEAN_ANOMALY": 157.6118, "EPHEMERIS_TYPE": 0, "CLASSIFICATION_TYPE": "U", "NORAD_CAT_ID": 40015, "ELEMENT_SET_NO": 999, "REV_AT_EPOCH": 62194, "BSTAR": 0.00018712, "MEAN_MOTION_DOT": 1.552e-05, "MEAN_MOTION_DDOT": 0}, "tle": {"line1": "1 40015U 14033F   25360.16782816  .00001552  00000+0  18712-3 0  9990", "line2": "2 40015  97.6208 165.4198 0032604 202.3678 157.6118 14.84851070621940"}}, "geometry": {"type": "Point", "coordinates": [165.18752653182722, 3.660131607474661]}}, {"type": "Feature", "properties": {"norad_id": 40053, "name": "SPOT 7", "group": "resource", "lat": -19.115468357101484, "lon": 65.02145654603879, "alt_km": 696.0396040606856, "timestamp": "2025-12-26T10:30:49.916424+00:00", "meta": {"OBJECT_NAME": "SPOT 7", "OBJECT_ID": "2014-034A", "EPOCH": "2025-12-26T04:01:34.343040", "MEAN_MOTION": 14.60750675, "ECCENTRICITY": 0.0001505, "INCLINATION": 98.0883, "RA_OF_ASC_NODE": 61.9324, "ARG_OF_PERICENTER": 81.5697, "MEAN_ANOMALY": 278.5675, "EPHEMERIS_TYPE": 0, "CLASSIFICATION_TYPE": "U", "NORAD_CAT_ID": 40053, "ELEMENT_SET_NO": 999, "REV_AT_EPOCH": 61187, "BSTAR": 0.00013875, "MEAN_MOTION_DOT": 6.31e-06, "MEAN_MOTION_DDOT": 0}, "tle": {"line1": "1 40053U 14034A   25360.16775860  .00000631  00000+0  13875-3 0  9996", "line2": "2 40053  98.0883  61.9324 0001505  81.5697 278.5675 14.60750675611876"}}, "geometry": {"type": "Point", "coordinates": [65.02145654603879, -19.115468357101484]}}, {"type": "Feature", "properties": {"norad_id": 40072, "name": "SKYSAT-B", "group": "resource", "lat": 32.97157246187726, "lon": 130.34485261629385, "alt_km": 600.2132871508848, "timestamp": "2025-12-26T10:30:49.916433+00:00", "meta": {"OBJECT_NAME": "SKYSAT-B", "OBJECT_ID": "2014-037D", "EPOCH": "2025-12-25T19:19:36.203232", "MEAN_MOTION": 14.87373258, "ECCENTRICITY": 0.00068538, "INCLINATION": 98.3629, "RA_OF_ASC_NODE": 304.2026, "ARG_OF_PERICENTER": 113.9297, "MEAN_ANOMALY": 246.2636, "EPHEMERIS_TYPE": 0, "CLASSIFICATION_TYPE": "U", "NORAD_CAT_ID": 40072, "ELEMENT_SET_NO": 999, "REV_AT_EPOCH": 62018, "BSTAR": 0.00021241273, "MEAN_MOTION_DOT": 1.859e-05, "MEAN_MOTION_DDOT": 0}, "tle": {"line1": "1 40072U 14037D   25359.80528013  .00001859  00000+0  21241-3 0  9994", "line2": "2 40072  98.3629 304.2026 0006853 113.9297 246.2636 14.87373258620187"}}, "geometry": {"type": "Point", "coordinates": [130.34485261629385, 32.97157246187726]}}, {"type": "Feature", "properties": {"norad_id": 40115, "name": "WORLDVIEW-3 (WV-3)", "group": "resource", "lat": -77.05261894999462, "lon": 109.57490630911416, "alt_km": 623.2336357365302, "timestamp": "2025-12-26T10:30:49.916444+00:00", "meta": {"OBJECT_NAME": "WORLDVIEW-3 (WV-3)", "OBJECT_ID": "2014-048A", "EPOCH": "2025-12-26T02:47:06.006336", "MEAN_MOTION": 14.84677534, "ECCENTRICITY": 0.0002079, "INCLINATION": 97.8763, "RA_OF_ASC_NODE": 72.2332, "ARG_OF_PERICENTER": 127.9297, "MEAN_ANOMALY": 232.2106, "EPHEMERIS_TYPE": 0, "CLASSIFICATION_TYPE": "U", "NORAD_CAT_ID": 40115, "ELEMENT_SET_NO": 999, "REV_AT_EPOCH": 61622, "BSTAR": 0.00013214, "MEAN_MOTION_DOT": 1.065e-05, "MEAN_MOTION_DDOT": 0}, "tle": {"line1": "1 40115U 14048A   25360.11604174  .00001065  00000+0  13214-3 0  9993", "line2": "2 40115  97.8763  72.2332 0002079 127.9297 232.2106 14.84677534616229"}}, "geometry": {"type": "Point", "coordinates": [109.57490630911416, -77.05261894999462]}}]}